BEIDOU 3 (C01)          
1 36287U 10001A   22018.55067804 -.00000269  00000+0  00000+0 0  9992
2 36287   1.8272  46.2650 0001383  44.5441   5.7925  1.00271454 44019
BEIDOU 5 (C06)          
1 36828U 10036A   22018.27806110 -.00000089  00000+0  00000+0 0  9991
2 36828  54.1879 177.6080 0027136 177.9580 329.2792  1.00290103 42071
BEIDOU 6 (C04)          
1 37210U 10057A   22018.63457141 -.00000101  00000+0  00000+0 0  9991
2 37210   0.8996  50.7164 0005955 165.4035 290.3080  1.00273340 41139
BEIDOU 7 (C07)          
1 37256U 10068A   22018.46519041 -.00000169  00000+0  00000+0 0  9996
2 37256  50.4783 291.4411 0017838 188.8962 270.8635  1.00297681 40642
BEIDOU 8 (C08)          
1 37384U 11013A   22018.54335171 -.00000153  00000+0  00000+0 0  9991
2 37384  60.0805  55.7489 0021349 192.8163 171.3233  1.00295047 39520
BEIDOU 9 (C09)          
1 37763U 11038A   22018.42577045 -.00000040  00000+0  00000+0 0  9999
2 37763  54.4728 180.0796 0087290 225.1629 320.9633  1.00265598 38498
BEIDOU 10 (C10)         
1 37948U 11073A   22017.46865251 -.00000126  00000+0  00000+0 0  9990
2 37948  50.5945 291.0854 0078226 219.3971 229.9047  1.00286783 37241
BEIDOU 11 (C05)         
1 38091U 12008A   22018.53445545  .00000067  00000+0  00000+0 0  9991
2 38091   2.0301  71.8109 0006807 274.3724  22.8488  1.00273758 36324
BEIDOU 12 (C11)         
1 38250U 12018A   22018.33263231 -.00000078  00000+0  00000+0 0  9990
2 38250  56.7301 358.5172 0024753 254.3325 106.8331  1.86234251 66295
BEIDOU 13 (C12)         
1 38251U 12018B   22018.45374265 -.00000077  00000+0  00000+0 0  9993
2 38251  56.6503 357.8479 0015627 259.3507 227.2955  1.86234110 66292
BEIDOU 15 (C14)         
1 38775U 12050B   22018.55212566 -.00000011  00000+0  00000+0 0  9994
2 38775  55.3166 116.7333 0012180 322.3670  67.1117  1.86231165 63675
BEIDOU 16 (C02)         
1 38953U 12059A   22018.53951411 -.00000165  00000+0  00000+0 0  9998
2 38953   1.6201  84.5865 0012139 277.6367  33.9547  1.00270953 33891
BEIDOU 17 (C31)         
1 40549U 15019A   22018.23023244 -.00000172  00000+0  00000+0 0  9990
2 40549  52.1431 314.5005 0035710 191.1282 151.1772  1.00274518 24927
BEIDOU 18 (C57)         
1 40748U 15037A   22018.44208873 -.00000079  00000+0  00000+0 0  9993
2 40748  55.9057 356.8060 0004280 334.2699  54.2245  1.86233230 44125
BEIDOU 19 (C58)         
1 40749U 15037B   22018.46148635 -.00000079  00000+0  00000+0 0  9995
2 40749  55.9085 356.7946 0006844 305.8785 230.7551  1.86232042 44117
BEIDOU 20 (C18)         
1 40938U 15053A   22018.16592465 -.00000092  00000+0  00000+0 0  9999
2 40938  51.7318 277.6030 0042999 194.0885 161.6292  1.00280668 23197
BEIDOU IGSO-6 (C13)     
1 41434U 16021A   22018.45796487 -.00000131  00000+0  00000+0 0  9993
2 41434  57.8777  54.3940 0045096 217.0994 106.9734  1.00270830 21329
BEIDOU-2 G7 (C03)       
1 41586U 16037A   22018.54474720 -.00000342  00000+0  00000+0 0  9995
2 41586   1.6449  67.0648 0008493 358.3115 359.1447  1.00268322 20639
BEIDOU-3 M1 (C19)       
1 43001U 17069A   22018.28689934 -.00000014  00000+0  00000+0 0  9997
2 43001  55.4698 116.7225 0008712 283.7531  84.0476  1.86231529 28600
BEIDOU-3 M2 (C20)       
1 43002U 17069B   22018.19002684 -.00000015  00000+0  00000+0 0  9990
2 43002  55.4693 116.7620 0006777 308.1814  37.8619  1.86231262 28586
BEIDOU-3 M3 (C27)       
1 43107U 18003A   22018.31740605 -.00000081  00000+0  00000+0 0  9994
2 43107  55.3530 357.7938 0003897  35.6285 201.8080  1.86232376 27350
BEIDOU-3 M4 (C28)       
1 43108U 18003B   22018.57976916 -.00000079  00000+0  00000+0 0  9996
2 43108  55.3470 357.7753 0004106 260.9642 197.1039  1.86230833 27361
BEIDOU-3 M5 (C21)       
1 43207U 18018A   22017.80601842 -.00000019  00000+0  00000+0 0  9994
2 43207  55.4284 116.8574 0004051 338.5349  21.4528  1.86231399 26735
BEIDOU-3 M6 (C22)       
1 43208U 18018B   22017.87270718 -.00000019  00000+0  00000+0 0  9996
2 43208  55.4278 116.8607 0006556 294.8425  65.0948  1.86231579 26737
BEIDOU-3 M7 (C29)       
1 43245U 18029A   22018.37383594 -.00000081  00000+0  00000+0 0  9991
2 43245  55.2744 355.5707 0001499 292.1595 253.4438  1.86232475 25896
BEIDOU-3 M8 (C30)       
1 43246U 18029B   22018.26728222 -.00000081  00000+0  10000-3 0  9996
2 43246  55.2718 355.6050 0004670 338.8934 181.6818  1.86232717 25881
BEIDOU IGSO-7 (C16)     
1 43539U 18057A   22018.36212469 -.00000094  00000+0  00000+0 0  9993
2 43539  55.0684 177.0329 0040534 220.5696 322.1873  1.00255784 13001
BEIDOU-3 M9 (C23)       
1 43581U 18062A   22018.43979706  .00000081  00000+0  00000+0 0  9993
2 43581  54.3224 237.2236 0002593 324.4693 162.3554  1.86232074 23631
BEIDOU-3 M10 (C24)      
1 43582U 18062B   22018.37965566  .00000081  00000+0  00000+0 0  9996
2 43582  54.3225 237.2163 0006934  15.7061 162.4338  1.86232308 23635
BEIDOU-3 M11 (C25)      
1 43602U 18067A   22017.79424465  .00000085  00000+0  00000+0 0  9991
2 43602  54.4021 235.8379 0007971  10.8031 176.5196  1.86231527 23114
BEIDOU-3 M12 (C26)      
1 43603U 18067B   22018.41761074  .00000082  00000+0  00000+0 0  9999
2 43603  54.3989 235.7829 0004997   5.3150 150.3563  1.86231492 23144
BEIDOU-3 M13 (C32)      
1 43622U 18072A   22017.73853595 -.00000021  00000+0  00000+0 0  9994
2 43622  55.3945 116.4209 0005508 274.8529 175.2778  1.86231363 22642
BEIDOU-3 M14 (C33)      
1 43623U 18072B   22018.46275884 -.00000012  00000+0  00000+0 0  9995
2 43623  55.3963 116.3884 0003276 303.5014   2.4190  1.86231352 22658
BEIDOU-3 M15 (C34)      
1 43647U 18078A   22018.42956522 -.00000081  00000+0  10000-3 0  9999
2 43647  55.1681 355.7402 0006977 348.8478 190.1666  1.86232655 22167
BEIDOU-3 M16 (C35)      
1 43648U 18078B   22018.31697657 -.00000081  00000+0  00000+0 0  9994
2 43648  55.1649 355.7510 0004668 353.6328  17.9643  1.86232154 22182
BEIDOU-3 G1 (C59)       
1 43683U 18085A   22018.55059083 -.00000266  00000+0  00000+0 0  9997
2 43683   0.8440 193.4699 0002829  33.4655 229.2135  1.00274393 11904
BEIDOU-3 M17 (C36)      
1 43706U 18093A   22017.91520345  .00000083  00000+0  00000+0 0  9991
2 43706  54.4043 237.1158 0007544 286.4598  73.5382  1.86232027 21531
BEIDOU-3 M18 (C37)      
1 43707U 18093B   22018.24955251  .00000082  00000+0  00000+0 0  9996
2 43707  54.4049 237.0961 0007679 317.4801 357.7538  1.86232150 21526
BEIDOU-3 IGSO-1 (C38)   
1 44204U 19023A   22018.49517157 -.00000191  00000+0  00000+0 0  9991
2 44204  56.3364  54.5887 0022595 194.8130 163.5546  1.00255944 10202
BEIDOU-2 G8             
1 44231U 19027A   22018.62214844 -.00000237  00000+0  00000+0 0  9998
2 44231   0.5189  65.2042 0006015 150.9337 270.2457  1.00266765  9928
BEIDOU-3 IGSO-2 (C39)   
1 44337U 19035A   22016.84841057 -.00000097  00000+0  00000+0 0  9992
2 44337  55.1052 173.0808 0020764 177.3821 186.5717  1.00246466  9537
BEIDOU-3 M23 (C45)      
1 44542U 19061A   22018.31770527  .00000090  00000+0  37361+2 0  9990
2 44542  54.6297 237.2147 0008924 351.3491 321.9745  1.86231766 15781
BEIDOU-3 M24 (C46)      
1 44543U 19061B   22018.52090692  .00000081  00000+0  10000-3 0  9995
2 44543  54.6275 237.1773 0005854 349.0424  11.6238  1.86231967 15795
BEIDOU-3 IGSO-3         
1 44709U 19073A   22018.58130387 -.00000166  00000+0  00000+0 0  9994
2 44709  57.5080 297.9398 0017843 184.3528 321.8539  1.00252526  8307
BEIDOU-3 M21            
1 44793U 19078A   22018.48437994 -.00000081  00000+0  10000-3 0  9996
2 44793  55.0182 355.7784 0006613 355.3675 174.5374  1.86232184 14651
BEIDOU-3 M22            
1 44794U 19078B   22018.09354958 -.00000083  00000+0  00000+0 0  9999
2 44794  54.9912 355.7863 0004694 346.5668 192.6796  1.86232661 14648
BEIDOU-3 M19            
1 44864U 19090A   22018.50832832 -.00000012  00000+0  00000+0 0  9991
2 44864  55.3293 116.6144 0015964 263.8980  27.9818  1.86231698 14238
BEIDOU-3 M20            
1 44865U 19090B   22018.55437334 -.00000011  00000+0  00000+0 0  9994
2 44865  55.3317 116.6447 0014004 278.7868 133.8535  1.86231644 14218
BEIDOU-3 G2             
1 45344U 20017A   22018.53864193 -.00000126  00000+0  00000+0 0  9990
2 45344   2.1852 345.0080 0000489  20.6964  26.1663  1.00271273  7114
BEIDOU-3 G3             
1 45807U 20040A   22018.54474720 -.00000339  00000+0  00000+0 0  9990
2 45807   1.7844 300.1240 0009327 348.8274 135.5486  1.00267788  5935
